ONEWEB-0597             
1 54663U 22166X   25208.77602359  .00000089  00000+0  18484-3 0  9991
2 54663  87.9276 308.7125 0002079 104.1171 256.0194 13.21825402129157
ONEWEB-0600             
1 54664U 22166Y   25208.83438265  .00000008  00000+0 -13082-4 0  9994
2 54664  87.9267 308.6977 0002131 101.8803 258.2570 13.21825193129134
ONEWEB-0601             
1 54665U 22166Z   25208.59940085  .00000060  00000+0  11268-3 0  9996
2 54665  87.9276 308.7584 0002052 110.8527 249.2826 13.21826331128829
ONEWEB-0602             
1 54666U 22166AA  25208.56470361  .00000010  00000+0 -78873-5 0  9992
2 54666  87.9280 308.7660 0002172 104.4095 255.7280 13.21826683128660
ONEWEB-0603             
1 54667U 22166AB  25208.56944167  .00000037  00000+0  58963-4 0  9998
2 54667  87.9268 308.7021 0002089 107.0631 253.0731 13.21827805128591
ONEWEB-0604             
1 54668U 22166AC  25208.55683249  .00000029  00000+0  38572-4 0  9994
2 54668  87.9276 308.7266 0002185 104.4399 255.6978 13.21826326128555
ONEWEB-0605             
1 54669U 22166AD  25208.77760245  .00000031  00000+0  44416-4 0  9998
2 54669  87.9275 308.7137 0001852 120.9666 239.1650 13.21825542129129
ONEWEB-0606             
1 54670U 22166AE  25208.57260101 -.00000063  00000+0 -18500-3 0  9995
2 54670  87.9274 308.7654 0001905  95.6460 264.4892 13.21825218128682
